{"type":"FeatureCollection","features":[{"type":"Feature","properties":{"@id":"way/153567448","amenity":"hospital","building":"hospital","healthcare":"hospital","name":"Avenue Healthcare Hospital"},"geometry":{"type":"Polygon","coordinates":[[[36.8587494,-1.3139969],[36.858794,-1.3140802],[36.8588938,-1.3140162],[36.8588774,-1.3139731],[36.8590069,-1.3138882],[36.8589742,-1.3138332],[36.8588446,-1.3139195],[36.8587494,-1.3139969]]]},"id":"way/153567448"},{"type":"Feature","properties":{"@id":"node/1453526846","amenity":"hospital","name":"Meridian Medical Centre"},"geometry":{"type":"Point","coordinates":[36.8346498,-1.3158117]},"id":"node/1453526846"},{"type":"Feature","properties":{"@id":"node/2001001163","amenity":"hospital","name":"RTI health centre"},"geometry":{"type":"Point","coordinates":[36.8420619,-1.3139158]},"id":"node/2001001163"},{"type":"Feature","properties":{"@id":"node/2145329589","addr:city":"Nairobi","addr:street":"Mombasa Road","amenity":"hospital","healthcare":"hospital","name":"The AgaKhan University"},"geometry":{"type":"Point","coordinates":[36.8350221,-1.3164881]},"id":"node/2145329589"},{"type":"Feature","properties":{"@id":"node/5372450531","amenity":"hospital","healthcare":"hospital","name":"The Aga Khan Hospital"},"geometry":{"type":"Point","coordinates":[36.8168874,-1.3121609]},"id":"node/5372450531"},{"type":"Feature","properties":{"@id":"node/8415973117","amenity":"hospital","beds":13,"healthcare":"hospital","healthcare:speciality":"gynaecology","name":"Balozi Hospital LTD","opening_hours":"24/7","operational_status":"operational"},"geometry":{"type":"Point","coordinates":[36.8457371,-1.3202275]},"id":"node/8415973117"},{"type":"Feature","properties":{"@id":"node/8963780228","amenity":"hospital","description":"Hospital outside Viwandani community. Also offer transportation service","health_facility:type":"hospital","healthcare":"hospital","name":"Coptic Hospital Lunga Lunga"},"geometry":{"type":"Point","coordinates":[36.86318,-1.3083805]},"id":"node/8963780228"},{"type":"Feature","properties":{"@id":"node/9002869889","addr:city":"Nairobi","addr:housenumber":17,"addr:street":"Oluvimu Road","alt_name":"Nairobi South Hospital South C","alt_name:en":"The Nairobi South Hospital","amenity":"hospital","healthcare":"hospital","name":"Nairobi South Hospital","website":"http://www.nairobisouthhospital.org/"},"geometry":{"type":"Point","coordinates":[36.8283841,-1.3136574]},"id":"node/9002869889"}]}